[{"OBJECT_NAME":"KAZEOSAT 1","OBJECT_ID":"2014-024A","EPOCH":"2026-03-09T22:32:10.650624","MEAN_MOTION":14.4203561,"ECCENTRICITY":0.0001038,"INCLINATION":98.3278,"RA_OF_ASC_NODE":143.8269,"ARG_OF_PERICENTER":83.2576,"MEAN_ANOMALY":276.8732,"EPHEMERIS_TYPE":0,"CLASSIFICATION_TYPE":"U","NORAD_CAT_ID":39731,"ELEMENT_SET_NO":999,"REV_AT_EPOCH":62425,"BSTAR":8.1032563e-5,"MEAN_MOTION_DOT":2.23e-6,"MEAN_MOTION_DDOT":0},{"OBJECT_NAME":"IRIDIUM 24","OBJECT_ID":"1997-082B","EPOCH":"2026-03-09T18:11:48.530976","MEAN_MOTION":14.42441153,"ECCENTRICITY":0.00092866,"INCLINATION":86.3941,"RA_OF_ASC_NODE":327.6494,"ARG_OF_PERICENTER":283.924,"MEAN_ANOMALY":76.0927,"EPHEMERIS_TYPE":0,"CLASSIFICATION_TYPE":"U","NORAD_CAT_ID":25105,"ELEMENT_SET_NO":999,"REV_AT_EPOCH":48149,"BSTAR":0.0001623091,"MEAN_MOTION_DOT":5.57e-6,"MEAN_MOTION_DDOT":0}]
